CYGFM08                 
1 41888U 16078E   17345.45839209  .00000410  00000-0  23823-4 0  9998
2 41888  34.9515   4.8714 0015348 126.0049 234.2086 15.13997957 54713
